ISS (ZARYA)
1 25544U 98067A   26229.53453565  .00000000  00000-0  98784-4 0  9997
2 25544  51.6334 356.4696 0007521  56.7242 303.4466 15.49472682    08
FENGYUN 1C DEB
1 29733U 99025X   26229.53981098  .00000000  00000-0  13515-2 0  9990
2 29733  99.2061 252.8251 0564817 349.9096 163.0581 12.96877409    06
COSMOS 2251 DEB
1 33757U 93036E   26229.36950527  .00000000  00000-0  16311-4 0  9990
2 33757  74.0340 231.5326 0015009 193.6213 232.6433 14.32633732    04
STARLINK-30273
1 57681U 23124U   26229.18167021  .00000000  00000-0  12265-2 0  9994
2 57681  53.1555 180.0657 0002883  71.2125 288.9190 15.34455472    06
EXPRESS-AMU1
1 41191U 15082A   26229.28381667  .00000000  00000-0  00000-0 0  9994
2 41191   0.0157 112.5142 0002352  35.2310 316.1760  1.00269781    01
CALSPHERE 1
1 00900U 64063C   26229.50550199  .00000000  00000-0  36937-3 0  9994
2 00900  90.2179  73.1970 0027786 104.9192 284.9159 13.76679290    00
